[{"OBJECT_NAME":"STARLINK-3653","OBJECT_ID":"2022-025AW","EPOCH":"2026-03-09T06:51:46.737504","MEAN_MOTION":15.08835173,"ECCENTRICITY":0.0001498,"INCLINATION":53.2189,"RA_OF_ASC_NODE":20.8415,"ARG_OF_PERICENTER":111.5022,"MEAN_ANOMALY":248.613,"EPHEMERIS_TYPE":0,"CLASSIFICATION_TYPE":"U","NORAD_CAT_ID":52000,"ELEMENT_SET_NO":999,"REV_AT_EPOCH":22086,"BSTAR":-1.977561e-5,"MEAN_MOTION_DOT":-6.03e-6,"MEAN_MOTION_DDOT":0},{"OBJECT_NAME":"IRIDIUM 33 DEB","OBJECT_ID":"1997-051UN","EPOCH":"2026-03-08T06:46:46.443072","MEAN_MOTION":15.09674475,"ECCENTRICITY":0.00152582,"INCLINATION":86.3393,"RA_OF_ASC_NODE":271.884,"ARG_OF_PERICENTER":69.7211,"MEAN_ANOMALY":290.5665,"EPHEMERIS_TYPE":0,"CLASSIFICATION_TYPE":"U","NORAD_CAT_ID":35929,"ELEMENT_SET_NO":999,"REV_AT_EPOCH":89067,"BSTAR":0.003863549,"MEAN_MOTION_DOT":0.00062834,"MEAN_MOTION_DDOT":0}]
